[{"OBJECT_NAME":"STARLINK-1486","OBJECT_ID":"2020-038AD","EPOCH":"2024-07-17T22:00:00.999936","MEAN_MOTION":15.37803156,"ECCENTRICITY":0.0003182,"INCLINATION":53.0782,"RA_OF_ASC_NODE":332.336,"ARG_OF_PERICENTER":223.8908,"MEAN_ANOMALY":201.082,"EPHEMERIS_TYPE":0,"CLASSIFICATION_TYPE":"U","NORAD_CAT_ID":45757,"ELEMENT_SET_NO":999,"REV_AT_EPOCH":22800,"BSTAR":0.00083527,"MEAN_MOTION_DOT":0.00031226,"MEAN_MOTION_DDOT":0},{"OBJECT_NAME":"STARLINK-1487","OBJECT_ID":"2020-038AE","EPOCH":"2024-07-17T16:21:39.924576","MEAN_MOTION":15.34670958,"ECCENTRICITY":0.0002499,"INCLINATION":53.0401,"RA_OF_ASC_NODE":330.18,"ARG_OF_PERICENTER":350.2201,"MEAN_ANOMALY":9.8751,"EPHEMERIS_TYPE":0,"CLASSIFICATION_TYPE":"U","NORAD_CAT_ID":45758,"ELEMENT_SET_NO":999,"REV_AT_EPOCH":22688,"BSTAR":0.00084231,"MEAN_MOTION_DOT":0.0002844,"MEAN_MOTION_DDOT":0},{"OBJECT_NAME":"STARLINK-1493","OBJECT_ID":"2020-038AF","EPOCH":"2024-07-17T19:29:05.473824","MEAN_MOTION":15.06425815,"ECCENTRICITY":0.0001221,"INCLINATION":53.0559,"RA_OF_ASC_NODE":29.5727,"ARG_OF_PERICENTER":94.6111,"MEAN_ANOMALY":265.5018,"EPHEMERIS_TYPE":0,"CLASSIFICATION_TYPE":"U","NORAD_CAT_ID":45759,"ELEMENT_SET_NO":999,"REV_AT_EPOCH":22605,"BSTAR":0.00070458,"MEAN_MOTION_DOT":0.00010236,"MEAN_MOTION_DDOT":0},{"OBJECT_NAME":"STARLINK-1494","OBJECT_ID":"2020-038AG","EPOCH":"2024-07-18T05:07:38.669664","MEAN_MOTION":15.06412472,"ECCENTRICITY":0.000133,"INCLINATION":53.0547,"RA_OF_ASC_NODE":27.7634,"ARG_OF_PERICENTER":81.9941,"MEAN_ANOMALY":278.1199,"EPHEMERIS_TYPE":0,"CLASSIFICATION_TYPE":"U","NORAD_CAT_ID":45760,"ELEMENT_SET_NO":999,"REV_AT_EPOCH":22704,"BSTAR":0.00027602,"MEAN_MOTION_DOT":3.834e-5,"MEAN_MOTION_DDOT":0},{"OBJECT_NAME":"STARLINK-1499","OBJECT_ID":"2020-038AJ","EPOCH":"2024-07-17T15:01:52.726944","MEAN_MOTION":15.41163408,"ECCENTRICITY":0.0002241,"INCLINATION":53.0087,"RA_OF_ASC_NODE":310.9453,"ARG_OF_PERICENTER":303.8817,"MEAN_ANOMALY":56.1973,"EPHEMERIS_TYPE":0,"CLASSIFICATION_TYPE":"U","NORAD_CAT_ID":45762,"ELEMENT_SET_NO":999,"REV_AT_EPOCH":22715,"BSTAR":0.0031861,"MEAN_MOTION_DOT":0.00136137,"MEAN_MOTION_DDOT":0},{"OBJECT_NAME":"STARLINK-1502","OBJECT_ID":"2020-038AL","EPOCH":"2024-07-17T20:16:52.470336","MEAN_MOTION":15.06418002,"ECCENTRICITY":0.000125,"INCLINATION":53.0546,"RA_OF_ASC_NODE":29.4229,"ARG_OF_PERICENTER":85.5399,"MEAN_ANOMALY":274.5733,"EPHEMERIS_TYPE":0,"CLASSIFICATION_TYPE":"U","NORAD_CAT_ID":45764,"ELEMENT_SET_NO":999,"REV_AT_EPOCH":22607,"BSTAR":0.0012185,"MEAN_MOTION_DOT":0.00017923,"MEAN_MOTION_DDOT":0},{"OBJECT_NAME":"STARLINK-1509","OBJECT_ID":"2020-038AN","EPOCH":"2024-07-17T13:38:49.887744","MEAN_MOTION":15.44107987,"ECCENTRICITY":5.16e-5,"INCLINATION":53.044,"RA_OF_ASC_NODE":305.3275,"ARG_OF_PERICENTER":41.6231,"MEAN_ANOMALY":318.4814,"EPHEMERIS_TYPE":0,"CLASSIFICATION_TYPE":"U","NORAD_CAT_ID":45766,"ELEMENT_SET_NO":999,"REV_AT_EPOCH":22815,"BSTAR":0.0032517,"MEAN_MOTION_DOT":0.00153744,"MEAN_MOTION_DDOT":0},{"OBJECT_NAME":"STARLINK-1511","OBJECT_ID":"2020-038AP","EPOCH":"2024-07-18T00:00:00.999648","MEAN_MOTION":15.37944576,"ECCENTRICITY":0.0002299,"INCLINATION":53.0491,"RA_OF_ASC_NODE":4.6973,"ARG_OF_PERICENTER":148.4702,"MEAN_ANOMALY":129.07,"EPHEMERIS_TYPE":0,"CLASSIFICATION_TYPE":"U","NORAD_CAT_ID":45767,"ELEMENT_SET_NO":999,"REV_AT_EPOCH":22735,"BSTAR":0.00085328,"MEAN_MOTION_DOT":0.00032058,"MEAN_MOTION_DDOT":0},{"OBJECT_NAME":"STARLINK-1459","OBJECT_ID":"2020-038AR","EPOCH":"2024-07-17T21:37:47.197344","MEAN_MOTION":15.06416978,"ECCENTRICITY":0.0001254,"INCLINATION":53.0549,"RA_OF_ASC_NODE":49.2013,"ARG_OF_PERICENTER":88.6921,"MEAN_ANOMALY":271.4212,"EPHEMERIS_TYPE":0,"CLASSIFICATION_TYPE":"U","NORAD_CAT_ID":45769,"ELEMENT_SET_NO":999,"REV_AT_EPOCH":22579,"BSTAR":0.0011601,"MEAN_MOTION_DOT":0.00017048,"MEAN_MOTION_DDOT":0},{"OBJECT_NAME":"STARLINK-1462","OBJECT_ID":"2020-038AS","EPOCH":"2024-07-17T15:46:45.210144","MEAN_MOTION":15.51757196,"ECCENTRICITY":0.0004385,"INCLINATION":53.048,"RA_OF_ASC_NODE":341.5075,"ARG_OF_PERICENTER":222.3019,"MEAN_ANOMALY":137.7651,"EPHEMERIS_TYPE":0,"CLASSIFICATION_TYPE":"U","NORAD_CAT_ID":45770,"ELEMENT_SET_NO":999,"REV_AT_EPOCH":22671,"BSTAR":0.0032357,"MEAN_MOTION_DOT":0.00201001,"MEAN_MOTION_DDOT":0},{"OBJECT_NAME":"STARLINK-1463","OBJECT_ID":"2020-038AT","EPOCH":"2024-07-18T03:50:40.079904","MEAN_MOTION":15.06419338,"ECCENTRICITY":0.0001299,"INCLINATION":53.0548,"RA_OF_ASC_NODE":8.0085,"ARG_OF_PERICENTER":69.2086,"MEAN_ANOMALY":290.9042,"EPHEMERIS_TYPE":0,"CLASSIFICATION_TYPE":"U","NORAD_CAT_ID":45771,"ELEMENT_SET_NO":999,"REV_AT_EPOCH":22750,"BSTAR":0.00040083,"MEAN_MOTION_DOT":5.697e-5,"MEAN_MOTION_DDOT":0},{"OBJECT_NAME":"STARLINK-1470","OBJECT_ID":"2020-038AU","EPOCH":"2024-07-17T18:01:31.312704","MEAN_MOTION":15.06433017,"ECCENTRICITY":0.0001197,"INCLINATION":53.056,"RA_OF_ASC_NODE":9.8403,"ARG_OF_PERICENTER":108.4702,"MEAN_ANOMALY":251.6417,"EPHEMERIS_TYPE":0,"CLASSIFICATION_TYPE":"U","NORAD_CAT_ID":45772,"ELEMENT_SET_NO":999,"REV_AT_EPOCH":22633,"BSTAR":0.001216,"MEAN_MOTION_DOT":0.00017893,"MEAN_MOTION_DDOT":0},{"OBJECT_NAME":"STARLINK-1482","OBJECT_ID":"2020-038AV","EPOCH":"2024-07-17T17:50:53.947680","MEAN_MOTION":15.06439939,"ECCENTRICITY":0.000128,"INCLINATION":53.0561,"RA_OF_ASC_NODE":9.8793,"ARG_OF_PERICENTER":86.9268,"MEAN_ANOMALY":273.1867,"EPHEMERIS_TYPE":0,"CLASSIFICATION_TYPE":"U","NORAD_CAT_ID":45773,"ELEMENT_SET_NO":999,"REV_AT_EPOCH":22633,"BSTAR":0.00098592,"MEAN_MOTION_DOT":0.0001445,"MEAN_MOTION_DDOT":0},{"OBJECT_NAME":"STARLINK-1485","OBJECT_ID":"2020-038AW","EPOCH":"2024-07-18T04:17:13.153344","MEAN_MOTION":15.06398936,"ECCENTRICITY":0.0001022,"INCLINATION":53.0553,"RA_OF_ASC_NODE":7.9246,"ARG_OF_PERICENTER":86.3189,"MEAN_ANOMALY":273.7917,"EPHEMERIS_TYPE":0,"CLASSIFICATION_TYPE":"U","NORAD_CAT_ID":45774,"ELEMENT_SET_NO":999,"REV_AT_EPOCH":22751,"BSTAR":0.00022569,"MEAN_MOTION_DOT":3.082e-5,"MEAN_MOTION_DDOT":0},{"OBJECT_NAME":"STARLINK-1488","OBJECT_ID":"2020-038AX","EPOCH":"2024-07-18T06:00:02.000160","MEAN_MOTION":15.48903964,"ECCENTRICITY":0.0003882,"INCLINATION":53.0675,"RA_OF_ASC_NODE":295.0129,"ARG_OF_PERICENTER":226.4992,"MEAN_ANOMALY":230.4356,"EPHEMERIS_TYPE":0,"CLASSIFICATION_TYPE":"U","NORAD_CAT_ID":45775,"ELEMENT_SET_NO":999,"REV_AT_EPOCH":22841,"BSTAR":0.0047094,"MEAN_MOTION_DOT":0.00266834,"MEAN_MOTION_DDOT":0},{"OBJECT_NAME":"STARLINK-1489","OBJECT_ID":"2020-038AY","EPOCH":"2024-07-17T16:07:32.285280","MEAN_MOTION":15.1799147,"ECCENTRICITY":0.0001693,"INCLINATION":53.0563,"RA_OF_ASC_NODE":4.0701,"ARG_OF_PERICENTER":76.8608,"MEAN_ANOMALY":283.2575,"EPHEMERIS_TYPE":0,"CLASSIFICATION_TYPE":"U","NORAD_CAT_ID":45776,"ELEMENT_SET_NO":999,"REV_AT_EPOCH":22641,"BSTAR":0.0016603,"MEAN_MOTION_DOT":0.0003401,"MEAN_MOTION_DDOT":0}]
