STARLINK-1486           
1 45757U 20038AD  24199.91667824  .00031226  00000+0  83527-3 0  9990
2 45757  53.0782 332.3360 0003182 223.8908 201.0820 15.37803156228005
STARLINK-1487           
1 45758U 20038AE  24199.68171209  .00028440  00000+0  84231-3 0  9999
2 45758  53.0401 330.1800 0002499 350.2201   9.8751 15.34670958226880
STARLINK-1493           
1 45759U 20038AF  24199.81186891  .00010236  00000+0  70458-3 0  9998
2 45759  53.0559  29.5727 0001221  94.6111 265.5018 15.06425815226058
STARLINK-1494           
1 45760U 20038AG  24200.21364201  .00003834  00000+0  27602-3 0  9999
2 45760  53.0547  27.7634 0001330  81.9941 278.1199 15.06412472227040
STARLINK-1499           
1 45762U 20038AJ  24199.62630471  .00136137  00000+0  31861-2 0  9992
2 45762  53.0087 310.9453 0002241 303.8817  56.1973 15.41163408227154
STARLINK-1502           
1 45764U 20038AL  24199.84505174  .00017923  00000+0  12185-2 0  9998
2 45764  53.0546  29.4229 0001250  85.5399 274.5733 15.06418002226071
STARLINK-1509           
1 45766U 20038AN  24199.56863296  .00153744  00000+0  32517-2 0  9994
2 45766  53.0440 305.3275 0000516  41.6231 318.4814 15.44107987228153
STARLINK-1511           
1 45767U 20038AP  24200.00001157  .00032058  00000+0  85328-3 0  9990
2 45767  53.0491   4.6973 0002299 148.4702 129.0700 15.37944576227359
STARLINK-1459           
1 45769U 20038AR  24199.90124071  .00017048  00000+0  11601-2 0  9993
2 45769  53.0549  49.2013 0001254  88.6921 271.4212 15.06416978225795
STARLINK-1462           
1 45770U 20038AS  24199.65746771  .00201001  00000+0  32357-2 0  9999
2 45770  53.0480 341.5075 0004385 222.3019 137.7651 15.51757196226714
STARLINK-1463           
1 45771U 20038AT  24200.16018611  .00005697  00000+0  40083-3 0  9993
2 45771  53.0548   8.0085 0001299  69.2086 290.9042 15.06419338227506
STARLINK-1470           
1 45772U 20038AU  24199.75105686  .00017893  00000+0  12160-2 0  9990
2 45772  53.0560   9.8403 0001197 108.4702 251.6417 15.06433017226332
STARLINK-1482           
1 45773U 20038AV  24199.74367995  .00014450  00000+0  98592-3 0  9993
2 45773  53.0561   9.8793 0001280  86.9268 273.1867 15.06439939226333
STARLINK-1485           
1 45774U 20038AW  24200.17862446  .00003082  00000+0  22569-3 0  9995
2 45774  53.0553   7.9246 0001022  86.3189 273.7917 15.06398936227511
STARLINK-1488           
1 45775U 20038AX  24200.25002315  .00266834  00000+0  47094-2 0  9991
2 45775  53.0675 295.0129 0003882 226.4992 230.4356 15.48903964228418
STARLINK-1489           
1 45776U 20038AY  24199.67190145  .00034010  00000+0  16603-2 0  9995
2 45776  53.0563   4.0701 0001693  76.8608 283.2575 15.17991470226410
